{
  "norad_id": 65459,
  "name": "STARLINK-34867",
  "history": [
    {
      "epoch": "2026-03-28T12:00:33.264000",
      "apogee_km": 475.89715541398346,
      "perigee_km": 474.386966840073,
      "latitude_deg": -1.472464737964037,
      "longitude_deg": 53.936959999846295,
      "semi_major_axis_km": 6853.2790611270275,
      "eccentricity": 0.00011018,
      "inclination_deg": 53.1593,
      "raan_deg": 170.8121,
      "arg_perigee_deg": 80.8212,
      "mean_anomaly_deg": 279.2914,
      "mean_motion_rev_day": 15.30224452
    }
  ]
}